{
  "type": "FeatureCollection",
  "features": [
    {
      "type": "Feature",
      "properties": {
        "norad_id": 28054,
        "name": "DMSP 5D-3 F16 (USA 172)",
        "group": "weather",
        "lat": -66.49285675032702,
        "lon": 23.301771911449734,
        "alt_km": 847.63357226279,
        "timestamp": "2025-12-10T11:33:53.033859+00:00",
        "meta_object_name": "DMSP 5D-3 F16 (USA 172)",
        "meta_object_id": "2003-048A",
        "meta_epoch": "2025-12-10T03:43:34.915872",
        "meta_mean_motion": 14.14422824,
        "meta_eccentricity": 0.0006586,
        "meta_inclination": 99.0048,
        "meta_ra_of_asc_node": 1.5919,
        "meta_arg_of_pericenter": 328.9199,
        "meta_mean_anomaly": 100.8843,
        "meta_ephemeris_type": 0,
        "meta_classification_type": "U",
        "meta_norad_cat_id": 28054,
        "meta_element_set_no": 999,
        "meta_rev_at_epoch": 14276,
        "meta_bstar": 0.00013555,
        "meta_mean_motion_dot": 2.14e-06,
        "meta_mean_motion_ddot": 0,
        "tle_line1": "1 28054U 03048A   25344.15526523  .00000214  00000+0  13555-3 0  9999",
        "tle_line2": "2 28054  99.0048   1.5919 0006586 328.9199 100.8843 14.14422824142768"
      },
      "geometry": {
        "type": "Point",
        "coordinates": [
          23.301771911449734,
          -66.49285675032702
        ]
      }
    },
    {
      "type": "Feature",
      "properties": {
        "norad_id": 28912,
        "name": "METEOSAT-9 (MSG-2)",
        "group": "weather",
        "lat": -7.941335070657114,
        "lon": -61.674749705692385,
        "alt_km": 35776.4471079523,
        "timestamp": "2025-12-10T11:33:53.033907+00:00",
        "meta_object_name": "METEOSAT-9 (MSG-2)",
        "meta_object_id": "2005-049B",
        "meta_epoch": "2025-12-09T20:38:15.300384",
        "meta_mean_motion": 1.00274858,
        "meta_eccentricity": 0.0003774,
        "meta_inclination": 8.9334,
        "meta_ra_of_asc_node": 56.0037,
        "meta_arg_of_pericenter": 190.0856,
        "meta_mean_anomaly": 187.9557,
        "meta_ephemeris_type": 0,
        "meta_classification_type": "U",
        "meta_norad_cat_id": 28912,
        "meta_element_set_no": 999,
        "meta_rev_at_epoch": 510,
        "meta_bstar": 0,
        "meta_mean_motion_dot": 1.24e-06,
        "meta_mean_motion_ddot": 0,
        "tle_line1": "1 28912U 05049B   25343.85989931  .00000124  00000+0  00000+0 0  9994",
        "tle_line2": "2 28912   8.9334  56.0037 0003774 190.0856 187.9557  1.00274858  5105"
      },
      "geometry": {
        "type": "Point",
        "coordinates": [
          -61.674749705692385,
          -7.941335070657114
        ]
      }
    },
    {
      "type": "Feature",
      "properties": {
        "norad_id": 29522,
        "name": "DMSP 5D-3 F17 (USA 191)",
        "group": "weather",
        "lat": -47.63714086971818,
        "lon": 160.2070658525942,
        "alt_km": 842.6591062082298,
        "timestamp": "2025-12-10T11:33:53.033924+00:00",
        "meta_object_name": "DMSP 5D-3 F17 (USA 191)",
        "meta_object_id": "2006-050A",
        "meta_epoch": "2025-12-10T03:41:59.746272",
        "meta_mean_motion": 14.14917722,
        "meta_eccentricity": 0.0009305,
        "meta_inclination": 98.7394,
        "meta_ra_of_asc_node": 349.5971,
        "meta_arg_of_pericenter": 232.9171,
        "meta_mean_anomaly": 127.1152,
        "meta_ephemeris_type": 0,
        "meta_classification_type": "U",
        "meta_norad_cat_id": 29522,
        "meta_element_set_no": 999,
        "meta_rev_at_epoch": 98568,
        "meta_bstar": 0.00015752,
        "meta_mean_motion_dot": 2.61e-06,
        "meta_mean_motion_ddot": 0,
        "tle_line1": "1 29522U 06050A   25344.15416373  .00000261  00000+0  15752-3 0  9990",
        "tle_line2": "2 29522  98.7394 349.5971 0009305 232.9171 127.1152 14.14917722985685"
      },
      "geometry": {
        "type": "Point",
        "coordinates": [
          160.2070658525942,
          -47.63714086971818
        ]
      }
    },
    {
      "type": "Feature",
      "properties": {
        "norad_id": 32958,
        "name": "FENGYUN 3A",
        "group": "weather",
        "lat": -79.9809984694686,
        "lon": 44.332349709978395,
        "alt_km": 830.8207150490298,
        "timestamp": "2025-12-10T11:33:53.033938+00:00",
        "meta_object_name": "FENGYUN 3A",
        "meta_object_id": "2008-026A",
        "meta_epoch": "2025-12-09T19:05:40.330752",
        "meta_mean_motion": 14.19513133,
        "meta_eccentricity": 0.0008032,
        "meta_inclination": 98.6694,
        "meta_ra_of_asc_node": 283.3844,
        "meta_arg_of_pericenter": 319.7099,
        "meta_mean_anomaly": 40.3482,
        "meta_ephemeris_type": 0,
        "meta_classification_type": "U",
        "meta_norad_cat_id": 32958,
        "meta_element_set_no": 999,
        "meta_rev_at_epoch": 90853,
        "meta_bstar": 0.00012769,
        "meta_mean_motion_dot": 2.26e-06,
        "meta_mean_motion_ddot": 0,
        "tle_line1": "1 32958U 08026A   25343.79560568  .00000226  00000+0  12769-3 0  9993",
        "tle_line2": "2 32958  98.6694 283.3844 0008032 319.7099  40.3482 14.19513133908531"
      },
      "geometry": {
        "type": "Point",
        "coordinates": [
          44.332349709978395,
          -79.9809984694686
        ]
      }
    },
    {
      "type": "Feature",
      "properties": {
        "norad_id": 35491,
        "name": "GOES 14",
        "group": "weather",
        "lat": 1.031202986785848,
        "lon": 144.58118895430195,
        "alt_km": 35787.2686322692,
        "timestamp": "2025-12-10T11:33:53.033952+00:00",
        "meta_object_name": "GOES 14",
        "meta_object_id": "2009-033A",
        "meta_epoch": "2025-12-10T02:20:46.762080",
        "meta_mean_motion": 1.00273291,
        "meta_eccentricity": 0.0003997,
        "meta_inclination": 1.1929,
        "meta_ra_of_asc_node": 85.4374,
        "meta_arg_of_pericenter": 154.9419,
        "meta_mean_anomaly": 125.598,
        "meta_ephemeris_type": 0,
        "meta_classification_type": "U",
        "meta_norad_cat_id": 35491,
        "meta_element_set_no": 999,
        "meta_rev_at_epoch": 469,
        "meta_bstar": 0,
        "meta_mean_motion_dot": -6.5e-07,
        "meta_mean_motion_ddot": 0,
        "tle_line1": "1 35491U 09033A   25344.09776345 -.00000065  00000+0  00000+0 0  9996",
        "tle_line2": "2 35491   1.1929  85.4374 0003997 154.9419 125.5980  1.00273291  4692"
      },
      "geometry": {
        "type": "Point",
        "coordinates": [
          144.58118895430195,
          1.031202986785848
        ]
      }
    },
    {
      "type": "Feature",
      "properties": {
        "norad_id": 35951,
        "name": "DMSP 5D-3 F18 (USA 210)",
        "group": "weather",
        "lat": 78.71827485576978,
        "lon": -167.47968720348797,
        "alt_km": 828.055624726655,
        "timestamp": "2025-12-10T11:33:53.033964+00:00",
        "meta_object_name": "DMSP 5D-3 F18 (USA 210)",
        "meta_object_id": "2009-057A",
        "meta_epoch": "2025-12-10T04:19:10.867296",
        "meta_mean_motion": 14.14766723,
        "meta_eccentricity": 0.0012092,
        "meta_inclination": 98.8832,
        "meta_ra_of_asc_node": 320.5936,
        "meta_arg_of_pericenter": 69.4357,
        "meta_mean_anomaly": 290.8112,
        "meta_ephemeris_type": 0,
        "meta_classification_type": "U",
        "meta_norad_cat_id": 35951,
        "meta_element_set_no": 999,
        "meta_rev_at_epoch": 83286,
        "meta_bstar": 0.00023118,
        "meta_mean_motion_dot": 4.01e-06,
        "meta_mean_motion_ddot": 0,
        "tle_line1": "1 35951U 09057A   25344.17998689  .00000401  00000+0  23118-3 0  9991",
        "tle_line2": "2 35951  98.8832 320.5936 0012092  69.4357 290.8112 14.14766723832860"
      },
      "geometry": {
        "type": "Point",
        "coordinates": [
          -167.47968720348797,
          78.71827485576978
        ]
      }
    },
    {
      "type": "Feature",
      "properties": {
        "norad_id": 36411,
        "name": "EWS-G2 (GOES 15)",
        "group": "weather",
        "lat": -0.6133024404474766,
        "lon": -45.59494221076913,
        "alt_km": 35772.452636169866,
        "timestamp": "2025-12-10T11:33:53.033977+00:00",
        "meta_object_name": "EWS-G2 (GOES 15)",
        "meta_object_id": "2010-008A",
        "meta_epoch": "2025-12-10T01:58:51.583008",
        "meta_mean_motion": 1.00269219,
        "meta_eccentricity": 0.0005893,
        "meta_inclination": 0.8075,
        "meta_ra_of_asc_node": 86.0538,
        "meta_arg_of_pericenter": 173.5819,
        "meta_mean_anomaly": 270.5727,
        "meta_ephemeris_type": 0,
        "meta_classification_type": "U",
        "meta_norad_cat_id": 36411,
        "meta_element_set_no": 999,
        "meta_rev_at_epoch": 5774,
        "meta_bstar": 0,
        "meta_mean_motion_dot": 4.1e-07,
        "meta_mean_motion_ddot": 0,
        "tle_line1": "1 36411U 10008A   25344.08254147  .00000041  00000+0  00000+0 0  9996",
        "tle_line2": "2 36411   0.8075  86.0538 0005893 173.5819 270.5727  1.00269219 57749"
      },
      "geometry": {
        "type": "Point",
        "coordinates": [
          -45.59494221076913,
          -0.6133024404474766
        ]
      }
    }
  ]
}